COSMOS 2361             
1 25590U 98076A   13054.88423244  .00000042  00000-0  29384-4 0  2134
2 25590  82.9357 199.3577 0030246 300.0184 175.4859 13.72799335709924
COSMOS 2378             
1 26818U 01023A   13053.83654101  .00000021  00000-0  63501-5 0  2953
2 26818  82.9235 224.4703 0031580 263.5298  96.2262 13.73804262587227
COSMOS 2389             
1 27436U 02026A   13053.87986259  .00000063  00000-0  48954-4 0  9485
2 27436  82.9543 166.5644 0047677 144.4984 337.9345 13.74801899539003
COSMOS 2398             
1 27818U 03023A   13054.57398562  .00000027  00000-0  12661-4 0  8653
2 27818  82.9477 116.6635 0032522 131.9827 228.4112 13.72029359487008
COSMOS 2407             
1 28380U 04028A   13054.18224739  .00000034  00000-0  19512-4 0  7070
2 28380  82.9557  74.0715 0039348 163.9253 196.3162 13.75920383431411
COSMOS 2414             
1 28521U 05002A   13054.71863860 -.00000070  00000-0 -72480-4 0  7843
2 28521  82.9490 118.8758 0041291 144.2182 216.1760 13.87439651409945
COSMOS 2429             
1 32052U 07038A   13053.89192363  .00000046  00000-0  31236-4 0  5695
2 32052  82.9799 188.1422 0039712 128.3969 232.0761 13.74767303273592
COSMOS 2454             
1 35635U 09039A   13054.68501679 -.00000224  00000-0 -19630-3 0  4029
2 35635  82.9544 111.5895 0020765 122.1944 238.1227 13.89467462182397
COSMOS 2463             
1 36519U 10017A   13054.52060949  .00000115  00000-0  11197-3 0  4467
2 36519  82.9567 220.5173 0034970 297.6261  62.1344 13.71306778141648
